GLOBALSTAR M078 [+]     
1 39076U 13005E   22352.91398897 -.00000080  00000+0  13531-3 0  9996
2 39076  51.9849 210.2302 0000971  28.6005 331.4914 12.62276560454837
GLOBALSTAR M095 [+]     
1 39077U 13005F   22353.01947663 -.00000070  00000+0  18870-3 0  9990
2 39077  51.9773 207.5575 0001393  53.8888 306.2107 12.62262116455065
GLOBALSTAR FM15 [+]     
1 52888U 22064A   22353.17554872 -.00000128  00000+0  00000+0 0  9999
2 52888  51.9804 312.2343 0009778  61.2680 298.9212 13.37546358 24455
GOES 1 (SMS-C) [-]      
1 08366U 75100A   22352.46386865 -.00000167  00000+0  00000+0 0  9999
2 08366   7.8306 293.4250 0002786 300.4480 293.1790  1.00241722172264
GOES 2 [-]              
1 10061U 77048A   22352.56647292  .00000061  00000+0  00000+0 0  9994
2 10061   9.4336 305.1691 0011995  22.2977 167.1761  0.99398516 33582
GOES 3 [-]              
1 10953U 78062A   22352.53396039  .00000099  00000+0  00000+0 0  9999
2 10953   9.7783 309.7908 0000918 175.8631 193.9418  0.99359708115854
GOES 4 [-]              
1 11964U 80074A   22352.75674333 -.00000022  00000+0  00000+0 0  9995
2 11964  10.7501 313.6180 0031616  77.1536 349.8110  0.99231552114777
GOES 5 [-]              
1 12472U 81049A   22352.79970495 -.00000267  00000+0  00000+0 0  9996
2 12472  11.6403 325.1156 0001364 249.1336  94.3511  1.00266570110044
GOES 6 [-]              
1 14050U 83041A   22352.37884160 -.00000237  00000+0  00000+0 0  9998
2 14050  12.2266 330.4638 0002998 168.5237   7.2548  1.00252033203218
GOES 7 [-]              
1 17561U 87022A   22352.74095576 -.00000082  00000+0  00000+0 0  9995
2 17561  14.0847 347.0552 0003770  59.0779 307.2006  0.99907733114210
GOES 8 [-]              
1 23051U 94022A   22352.36312807 -.00000186  00000+0  00000+0 0  9996
2 23051  13.3334  22.8963 0003567  25.3073 346.4424  0.98907764111506
GOES 9 [-]              
1 23581U 95025A   22352.81495882 -.00000135  00000+0  00000+0 0  9997
2 23581  12.8290  23.2892 0005050 127.4989 240.5216  0.98801523100152
GOES 10 [-]             
1 24786U 97019A   22350.64246993 -.00000020  00000+0  00000+0 0  9999
2 24786  11.6259  29.5445 0027657 206.6248 347.7575  0.99121807 93396
GOES 11 [-]             
1 26352U 00022A   22352.75525081  .00000082  00000+0  00000+0 0  9997
2 26352   9.0746  57.8473 0002733 202.4731 169.8771  0.99039558 39834
GOES 12 [-]             
1 26871U 01031A   22352.75045674  .00000083  00000+0  00000+0 0  9990
2 26871   9.8487  46.9684 0004451 301.6144  55.7071  0.99135284 78104
EWS-G1 (GOES 13) [+]    
1 29155U 06018A   22352.82515712  .00000063  00000+0  00000+0 0  9999
2 29155   1.0463  93.3607 0006360 152.6809 199.9147  1.00275418 30575
GOES 14 [B]             
1 35491U 09033A   22352.46395934 -.00000067  00000+0  00000+0 0  9996
2 35491   0.1520 257.3837 0017747 328.0903 284.3930  1.00270531 49357
GOES 15 [B]             
1 36411U 10008A   22352.71578053  .00000076  00000+0  00000+0 0  9995
2 36411   0.1077 285.2807 0002615 286.8738   5.5260  1.00283711 46865
GOES 16 [+]             
1 41866U 16071A   22352.79787449 -.00000221  00000+0  00000+0 0  9993
2 41866   0.0707 252.0849 0000689  60.2245 347.1305  1.00272274 22319
GOES 17 [+]             
1 43226U 18022A   22352.78549707  .00000125  00000+0  00000+0 0  9997
2 43226   0.0047 124.5918 0000386 149.7610 318.4768  1.00272132 17626
GOES 18 [+]             
1 51850U 22021A   22352.78549707  .00000124  00000+0  00000+0 0  9992
2 51850   0.0219 167.1725 0001223  91.2567 334.8096  1.00272940  3001
GORIZONT 1 [-]          
1 11158U 78118A   22351.99416689 -.00000065  00000+0  00000+0 0  9996
2 11158  11.0823 198.0792 3433682 291.3294  35.7982  1.00305183110117
GORIZONT 2 [-]          
1 11440U 79062A   22352.89825434 -.00000007  00000+0  00000+0 0  9997
2 11440   8.8555 299.7173 0003692 302.6633 236.7190  1.00303332125218
GORIZONT 3 [-]          
1 11648U 79105A   22352.89632700 -.00000195  00000+0  00000+0 0  9995
2 11648   9.0179 301.1793 0012838 220.0032 336.1021  1.00342653109665
GORIZONT 4 [-]          
1 11841U 80049A   22352.23114932 -.00000176  00000+0  00000+0 0  9998
2 11841  10.1782 307.0781 0001164 322.2047 221.4512  0.98630721220922
GORIZONT 5 [-]          
1 13092U 82020A   22352.73563872 -.00000189  00000+0  00000+0 0  9999
2 13092  11.1830 312.4036 0033853 216.6099 155.5124  0.98533603109027
GORIZONT 6 [-]          
1 13624U 82103A   22352.64007884  .00000144  00000+0  00000+0 0  9998
2 13624  10.1099 312.4653 0001157 263.1902 302.7961  1.00326235108143
GORIZONT 7 [-]          
1 14160U 83066A   22352.56847771 -.00000047  00000+0  00000+0 0  9994
2 14160  11.7952 321.9179 0009943 319.7522 223.6736  0.98347979142197
GORIZONT 8 [-]          
1 14532U 83118A   22352.46736635  .00000019  00000+0  00000+0 0  9998
2 14532  11.9755 323.7892 0029792 153.2220 204.4699  0.98268215107950
GORIZONT 9 [-]          
1 14940U 84041A   22352.96955528  .00000011  00000+0  00000+0 0  9998
2 14940  11.1638 321.7937 0004586 218.8749 322.0848  1.00226550109226
GORIZONT 10 [-]         
1 15144U 84078A   22352.63567241  .00000107  00000+0  00000+0 0  9996
2 15144  11.2636 322.8227 0000278 178.8952   4.8904  1.00256148141771
GORIZONT 11 [-]         
1 15484U 85007A   22352.82618916 -.00000352  00000+0  00000+0 0  9996
2 15484  11.4500 324.8136 0002858 159.8365  25.3038  1.00340765139833
GORIZONT 12 [-]         
1 16769U 86044A   22352.53483205  .00000137  00000+0  00000+0 0  9994
2 16769  12.0896 330.2178 0001669 248.6790 105.1720  1.00236316134454
GORIZONT 13 [-]         
1 17083U 86090A   22352.38035236 -.00000115  00000+0  00000+0 0  9992
2 17083  13.9889 337.4407 0013651 340.1772 216.7634  0.96726461106295
GORIZONT 14 [-]         
1 17969U 87040A   22352.53709833 -.00000032  00000+0  00000+0 0  9997
2 17969  12.9003 328.7935 0031042 177.9872 190.2006  0.97657824107393
GORIZONT 15 [-]         
1 19017U 88028A   22352.42644338 -.00000030  00000+0  00000+0 0  9994
2 19017  14.2915 340.2348 0036515 159.9019 359.8245  0.97827097107014
GORIZONT 16 [-]         
1 19397U 88071A   22352.77311964 -.00000165  00000+0  00000+0 0  9996
2 19397  13.1394 338.9133 0013391  63.9799 123.3754  0.99990433125472
GORIZONT 17 [-]         
1 19765U 89004A   22352.67280821 -.00000078  00000+0  00000+0 0  9991
2 19765  13.6990 342.2796 0022650 136.4972 228.1652  0.99067585122930
GORIZONT 18 [-]         
1 20107U 89052A   22352.70488491 -.00000129  00000+0  00000+0 0  9990
2 20107  13.7484 343.5340 0033875 320.4391 215.1563  0.99405028121722
GORIZONT 19 [-]         
1 20263U 89081A   22352.47111444 -.00000200  00000+0  00000+0 0  9990
2 20263  13.4764 342.7103 0004001 214.1505 144.6208  1.00352779121691
GORIZONT 20 [-]         
1 20659U 90054A   22351.96982661 -.00000211  00000+0  00000+0 0  9993
2 20659  13.9245 345.5302 0006812 171.5906   7.2949  1.00233645118887
GORIZONT 21 [-]         
1 20923U 90094A   22352.87445830 -.00000283  00000+0  00000+0 0  9993
2 20923  13.9406 346.2908 0004823 208.9295 156.1008  1.00347006117646
GORIZONT 22 [-]         
1 20953U 90102A   22352.33775206 -.00000314  00000+0  00000+0 0  9995
2 20953  13.9012 346.6658 0002330  24.9090 332.1698  1.00237258117567
GORIZONT 23 [-]         
1 21533U 91046A   22352.83962650 -.00000251  00000+0  00000+0 0  9994
2 21533  14.6806 350.8299 0003940 308.9725 223.7434  0.98910277108105
GORIZONT 24 [-]         
1 21759U 91074A   22352.74563201 -.00000099  00000+0  00000+0 0  9994
2 21759  14.8441 352.7472 0018187 227.6700 159.7340  0.98443981112398
GORIZONT 25 [-]         
1 21922U 92017A   22352.70959182  .00000091  00000+0  00000+0 0  9998
2 21922  14.3842 352.0588 0028415  85.3926 107.4481  0.99853183112199
GORIZONT 26 [-]         
1 22041U 92043A   22352.76438120 -.00000192  00000+0  00000+0 0  9993
2 22041  14.5639 354.0771 0031423 238.0042 302.7209  0.99247056110825
GORIZONT 27 [-]         
1 22245U 92082A   22352.16855008  .00000129  00000+0  00000+0 0  9993
2 22245  14.4801 353.6533 0011561  10.8469 171.6394  1.00174735114325
GORIZONT 28 [-]         
1 22880U 93069A   22352.80711397 -.00000260  00000+0  00000+0 0  9994
2 22880  14.6382 357.5243 0034044 136.1595 215.2300  0.99657347106404
GORIZONT 29 [-]         
1 22907U 93072A   22352.41438444 -.00000283  00000+0  00000+0 0  9999
2 22907  14.5475 356.9751 0009601 345.3465 208.0165  1.00146029106383
GORIZONT 30 [-]         
1 23108U 94030A   22352.84354670 -.00000274  00000+0  00000+0 0  9993
2 23108  14.5640 357.8717 0001811 192.2215 342.7274  1.00248794104668
GORIZONT 31 [-]         
1 23775U 96005A   22352.54398435 -.00000154  00000+0  00000+0 0  9998
2 23775  14.5062   4.1157 0018880 203.7677 165.5972  0.99882506 98301
GORIZONT 32 [-]         
1 23880U 96034A   22352.76438120  .00000031  00000+0  00000+0 0  9990
2 23880  14.4587   4.6232 0007916 357.4837 180.7072  1.00209442 97259
GORIZONT 33 [-]         
1 26372U 00029A   22352.36368931 -.00000152  00000+0  00000+0 0  9991
2 26372  13.2246  15.8838 0002415 107.0663  75.4045  1.00295297 82626
GPS BIIR-2  (PRN 13)    
1 24876U 97035A   22352.33845168  .00000105  00000+0  00000+0 0  9997
2 24876  55.5389 148.4973 0065440  53.3155 307.2835  2.00563752186341
GPS BIIR-4  (PRN 20)    
1 26360U 00025A   22352.32068789 -.00000048  00000+0  00000+0 0  9992
2 26360  54.2110  71.2840 0047081 191.5275 246.7850  2.00559487165660
GPS BIIR-6  (PRN 22)    
1 26605U 00071A   22352.62735306  .00000098  00000+0  00000+0 0  9998
2 26605  55.1262 145.4003 0138587 254.7119 167.8168  2.00552704161910
GPS BIIR-8  (PRN 16)    
1 27663U 03005A   22352.75072664 -.00000007  00000+0  00000+0 0  9999
2 27663  55.3932 265.7396 0130227  41.9897 322.0499  2.00553715145719
GPS BIIR-9  (PRN 21)    
1 27704U 03010A   22352.47144453 -.00000060  00000+0  00000+0 0  9995
2 27704  55.0781  15.8639 0248474 310.8338  68.6634  2.00564089144506
